[{"OBJECT_NAME":"YAOGAN-43 01H","OBJECT_ID":"2024-148H","EPOCH":"2026-03-10T00:13:57.702432","MEAN_MOTION":15.25826805,"ECCENTRICITY":0.000635,"INCLINATION":34.994,"RA_OF_ASC_NODE":64.6147,"ARG_OF_PERICENTER":359.2394,"MEAN_ANOMALY":0.8311,"EPHEMERIS_TYPE":0,"CLASSIFICATION_TYPE":"U","NORAD_CAT_ID":60465,"ELEMENT_SET_NO":999,"REV_AT_EPOCH":8702,"BSTAR":0.00039232254,"MEAN_MOTION_DOT":0.00010268,"MEAN_MOTION_DDOT":0},{"OBJECT_NAME":"STARLINK-35442","OBJECT_ID":"2025-253A","EPOCH":"2026-03-09T10:44:02.698944","MEAN_MOTION":15.27611453,"ECCENTRICITY":0.0003579,"INCLINATION":43.0024,"RA_OF_ASC_NODE":214.2065,"ARG_OF_PERICENTER":294.1681,"MEAN_ANOMALY":65.8797,"EPHEMERIS_TYPE":0,"CLASSIFICATION_TYPE":"U","NORAD_CAT_ID":66319,"ELEMENT_SET_NO":999,"REV_AT_EPOCH":2020,"BSTAR":0.0015497697,"MEAN_MOTION_DOT":0.00042677,"MEAN_MOTION_DDOT":0}]
